{
  "norad_id": 47178,
  "name": "STARLINK-1912",
  "history": [
    {
      "epoch": "2026-03-28T16:51:27.302112",
      "apogee_km": 391.42232254073406,
      "perigee_km": 384.55835699963154,
      "latitude_deg": -7.690156398985079,
      "longitude_deg": 45.2303356800694,
      "semi_major_axis_km": 6766.1273397701825,
      "eccentricity": 0.00050723,
      "inclination_deg": 53.0499,
      "raan_deg": 189.1287,
      "arg_perigee_deg": 269.1016,
      "mean_anomaly_deg": 90.9415,
      "mean_motion_rev_day": 15.59884747
    }
  ]
}