{"fetched_at":"2026-03-29T16:36:15Z","count":15609,"tles":[{"name":"STARLINK-1912","line1":"1 47178U 20088BJ  26087.70239933  .00110853  00000+0  13397-2 0  9996","line2":"2 47178  53.0499 189.1287 0005072 269.1016  90.9415 15.59884747295084","category":"Starlink"}]}